ONEWEB-0588             
1 55153U 23004P   24180.55688401  .00000075  00000+0  15645-3 0  9995
2 55153  87.9153 118.5674 0001480  80.0545 280.0754 13.18686111 74981
ONEWEB-0598             
1 55154U 23004Q   24179.91059443 -.00000479  00000+0 -13886-2 0  9996
2 55154  87.8961 164.2317 0001825  64.0417 296.0898 13.11418208 71620
ONEWEB-0599             
1 55155U 23004R   24180.21310931 -.00000433  00000+0 -11474-2 0  9995
2 55155  87.9177 148.9878 0002194  80.0445 280.0934 13.17649548 72805
ONEWEB-0614             
1 55156U 23004S   24180.21069812 -.00000438  00000+0 -12709-2 0  9992
2 55156  87.8963 164.1769 0001955  99.1771 260.9578 13.11416591 71628
ONEWEB-0616             
1 55157U 23004T   24179.95139968  .00000128  00000+0  29726-3 0  9994
2 55157  87.9174 149.0474 0003242  76.8073 283.3420 13.17649206 72989
ONEWEB-0617             
1 55158U 23004U   24179.89364550 -.00000144  00000+0 -44283-3 0  9990
2 55158  87.8959 164.2345 0001653  95.5573 264.5743 13.11415913 71587
ONEWEB-0618             
1 55159U 23004V   24179.76899363  .00000226  00000+0  85418-4 0  9997
2 55159  86.9063  89.5844 0011165 247.9427 112.0580 14.26824137 76857
ONEWEB-0619             
1 55160U 23004W   24179.90777669  .00000078  00000+0  16673-3 0  9990
2 55160  87.9171 149.0329 0002637  90.2100 269.9334 13.17649432 72870
